{
  "type": "Feature",
  "geometry": {
    "type": "Polygon",
    "coordinates": [
      [
        [
          -105.7728168,
          39.798611799999996
        ],
        [
          -105.7728168,
          39.8086118
        ],
        [
          -105.78281679999999,
          39.8086118
        ],
        [
          -105.78281679999999,
          39.798611799999996
        ],
        [
          -105.7728168,
          39.798611799999996
        ]
      ]
    ]
  },
  "properties": {
    "site_name": "Berthoud Summit",
    "state": "CO",
    "site": 335,
    "crs": "urn:ogc:def:crs:EPSG::4326"
  }
}