{
  "type": "Feature",
  "geometry": {
    "type": "Polygon",
    "coordinates": [
      [
        [
          -106.1927692,
          39.3751804
        ],
        [
          -106.1927692,
          39.3851804
        ],
        [
          -106.20276919999999,
          39.3851804
        ],
        [
          -106.20276919999999,
          39.3751804
        ],
        [
          -106.1927692,
          39.3751804
        ]
      ]
    ]
  },
  "properties": {
    "site_name": "fremont pass",
    "state": "CO",
    "site": 485,
    "crs": "urn:ogc:def:crs:EPSG::4326"
  }
}