{
  "type": "Feature",
  "geometry": {
    "type": "Polygon",
    "coordinates": [
      [
        [
          -106.05498990000001,
          39.35591995
        ],
        [
          -106.05498990000001,
          39.365919950000006
        ],
        [
          -106.0649899,
          39.365919950000006
        ],
        [
          -106.0649899,
          39.35591995
        ],
        [
          -106.05498990000001,
          39.35591995
        ]
      ]
    ]
  },
  "properties": {
    "site_name": "Hoosier Pass",
    "state": "CO",
    "site": 531,
    "crs": "urn:ogc:def:crs:EPSG::4326"
  }
}