{
  "type": "Feature",
  "geometry": {
    "type": "Polygon",
    "coordinates": [
      [
        [
          -105.8644,
          39.641459999999995
        ],
        [
          -105.8644,
          39.65146
        ],
        [
          -105.8744,
          39.65146
        ],
        [
          -105.8744,
          39.641459999999995
        ],
        [
          -105.8644,
          39.641459999999995
        ]
      ]
    ]
  },
  "properties": {
    "site_name": "Grizzly Peak",
    "state": "CO",
    "site": 505,
    "crs": "urn:ogc:def:crs:EPSG::4326"
  }
}