{
  "type": "Feature",
  "geometry": {
    "type": "Polygon",
    "coordinates": [
      [
        [
          -106.1526996,
          39.71302902
        ],
        [
          -106.1526996,
          39.723029020000006
        ],
        [
          -106.1626996,
          39.723029020000006
        ],
        [
          -106.1626996,
          39.71302902
        ],
        [
          -106.1526996,
          39.71302902
        ]
      ]
    ]
  },
  "properties": {
    "site_name": "Summit Ranch",
    "state": "CO",
    "site": 802,
    "crs": "urn:ogc:def:crs:EPSG::4326"
  }
}